SHIJIAN-6 05A (SJ-6 05A)
1 49961U 21122A   26068.88345882  .00003299  00000+0  27617-3 0  9993
2 49961  97.4012  42.3306 0003221  76.6317 283.5266 14.99085264233873
STARLINK-5577           
1 55751U 23028L   26068.86151139  .00000480  00000+0  48002-4 0  9993
2 55751  69.9992 244.1117 0002156 271.7261  88.3651 14.98327635166067
